{"type": "FeatureCollection", "features": [ {"type": "Feature", "properties": {"norad_id": 35996, "name": "COSMOS 2251 DEB", "group": "cosmos-2251-debris", "lat": 47.84960692982564, "lon": 142.36484323286587, "alt_km": 595.6713230943569, "timestamp": "2025-12-02T19:35:50.951598+00:00", "meta": {"OBJECT_NAME": "COSMOS 2251 DEB", "OBJECT_ID": "1993-036AWN", "EPOCH": "2025-12-01T16:18:57.855456", "MEAN_MOTION": 15.08693829, "ECCENTRICITY": 0.00895161, "INCLINATION": 74.0129, "RA_OF_ASC_NODE": 126.2434, "ARG_OF_PERICENTER": 219.689, "MEAN_ANOMALY": 139.773, "EPHEMERIS_TYPE": 0, "CLASSIFICATION_TYPE": "U", "NORAD_CAT_ID": 35996, "ELEMENT_SET_NO": 999, "REV_AT_EPOCH": 72159, "BSTAR": 0.00083966812, "MEAN_MOTION_DOT": 0.00014443, "MEAN_MOTION_DDOT": 0}, "tle": {"line1": "1 35996U 93036AWN 25335.67983629  .00014443  00000+0  83967-3 0  9992", "line2": "2 35996  74.0129 126.2434 0089516 219.6890 139.7730 15.08693829721598"}}, "geometry": {"type": "Point", "coordinates": [142.36484323286587, 47.84960692982564]}}, {"type": "Feature", "properties": {"norad_id": 35997, "name": "COSMOS 2251 DEB", "group": "cosmos-2251-debris", "lat": 38.005565157909366, "lon": -141.12503403416306, "alt_km": 723.7244969679505, "timestamp": "2025-12-02T19:35:50.951608+00:00", "meta": {"OBJECT_NAME": "COSMOS 2251 DEB", "OBJECT_ID": "1993-036AWP", "EPOCH": "2025-12-02T07:50:00.553056", "MEAN_MOTION": 14.51236016, "ECCENTRICITY": 0.0015908, "INCLINATION": 74.0439, "RA_OF_ASC_NODE": 206.8774, "ARG_OF_PERICENTER": 283.0639, "MEAN_ANOMALY": 76.8746, "EPHEMERIS_TYPE": 0, "CLASSIFICATION_TYPE": "U", "NORAD_CAT_ID": 35997, "ELEMENT_SET_NO": 999, "REV_AT_EPOCH": 70733, "BSTAR": 0.00076939, "MEAN_MOTION_DOT": 3.037e-05, "MEAN_MOTION_DDOT": 0}, "tle": {"line1": "1 35997U 93036AWP 25336.32639529  .00003037  00000+0  76939-3 0  9991", "line2": "2 35997  74.0439 206.8774 0015908 283.0639  76.8746 14.51236016707337"}}, "geometry": {"type": "Point", "coordinates": [-141.12503403416306, 38.005565157909366]}}, {"type": "Feature", "properties": {"norad_id": 36005, "name": "COSMOS 2251 DEB", "group": "cosmos-2251-debris", "lat": -29.868907165443407, "lon": -57.960026906133905, "alt_km": 706.375191684443, "timestamp": "2025-12-02T19:35:50.951618+00:00", "meta": {"OBJECT_NAME": "COSMOS 2251 DEB", "OBJECT_ID": "1993-036AWX", "EPOCH": "2025-12-02T10:19:31.846944", "MEAN_MOTION": 14.47330228, "ECCENTRICITY": 0.0062121, "INCLINATION": 74.0257, "RA_OF_ASC_NODE": 113.2939, "ARG_OF_PERICENTER": 252.6754, "MEAN_ANOMALY": 106.7603, "EPHEMERIS_TYPE": 0, "CLASSIFICATION_TYPE": "U", "NORAD_CAT_ID": 36005, "ELEMENT_SET_NO": 999, "REV_AT_EPOCH": 87435, "BSTAR": 0.00029276, "MEAN_MOTION_DOT": 1.069e-05, "MEAN_MOTION_DDOT": 0}, "tle": {"line1": "1 36005U 93036AWX 25336.43022971  .00001069  00000+0  29276-3 0  9996", "line2": "2 36005  74.0257 113.2939 0062121 252.6754 106.7603 14.47330228874356"}}, "geometry": {"type": "Point", "coordinates": [-57.960026906133905, -29.868907165443407]}}, {"type": "Feature", "properties": {"norad_id": 36045, "name": "COSMOS 2251 DEB", "group": "cosmos-2251-debris", "lat": -10.995595473938357, "lon": -98.11735245534354, "alt_km": 669.8972610493583, "timestamp": "2025-12-02T19:35:50.951629+00:00", "meta": {"OBJECT_NAME": "COSMOS 2251 DEB", "OBJECT_ID": "1993-036AXG", "EPOCH": "2025-12-01T23:07:36.106176", "MEAN_MOTION": 14.69377741, "ECCENTRICITY": 0.00488719, "INCLINATION": 73.7639, "RA_OF_ASC_NODE": 80.3157, "ARG_OF_PERICENTER": 97.908, "MEAN_ANOMALY": 262.764, "EPHEMERIS_TYPE": 0, "CLASSIFICATION_TYPE": "U", "NORAD_CAT_ID": 36045, "ELEMENT_SET_NO": 999, "REV_AT_EPOCH": 8230, "BSTAR": 0.0029815468, "MEAN_MOTION_DOT": 0.0001797, "MEAN_MOTION_DDOT": 0}, "tle": {"line1": "1 36045U 93036AXG 25335.96361234  .00017970  00000+0  29815-2 0  9991", "line2": "2 36045  73.7639  80.3157 0048871  97.9080 262.7640 14.69377741 82309"}}, "geometry": {"type": "Point", "coordinates": [-98.11735245534354, -10.995595473938357]}}, {"type": "Feature", "properties": {"norad_id": 36046, "name": "COSMOS 2251 DEB", "group": "cosmos-2251-debris", "lat": 47.40316224212519, "lon": -46.21892459801488, "alt_km": 639.8080822743541, "timestamp": "2025-12-02T19:35:50.951640+00:00", "meta": {"OBJECT_NAME": "COSMOS 2251 DEB", "OBJECT_ID": "1993-036AXH", "EPOCH": "2025-12-01T14:24:58.053024", "MEAN_MOTION": 14.65147038, "ECCENTRICITY": 0.00552553, "INCLINATION": 74.0167, "RA_OF_ASC_NODE": 297.9586, "ARG_OF_PERICENTER": 87.1353, "MEAN_ANOMALY": 32.6466, "EPHEMERIS_TYPE": 0, "CLASSIFICATION_TYPE": "U", "NORAD_CAT_ID": 36046, "ELEMENT_SET_NO": 999, "REV_AT_EPOCH": 63840, "BSTAR": 0.0006286755, "MEAN_MOTION_DOT": 3.426e-05, "MEAN_MOTION_DDOT": 0}, "tle": {"line1": "1 36046U 93036AXH 25335.60067191  .00003426  00000+0  62868-3 0  9995", "line2": "2 36046  74.0167 297.9586 0055255  87.1353  32.6466 14.65147038638408"}}, "geometry": {"type": "Point", "coordinates": [-46.21892459801488, 47.40316224212519]}}, {"type": "Feature", "properties": {"norad_id": 36047, "name": "COSMOS 2251 DEB", "group": "cosmos-2251-debris", "lat": -22.29660036623914, "lon": -12.550552437191307, "alt_km": 582.4957879642507, "timestamp": "2025-12-02T19:35:50.951650+00:00", "meta": {"OBJECT_NAME": "COSMOS 2251 DEB", "OBJECT_ID": "1993-036AXJ", "EPOCH": "2025-12-01T08:22:30.253728", "MEAN_MOTION": 14.95238744, "ECCENTRICITY": 0.00076085, "INCLINATION": 74.0357, "RA_OF_ASC_NODE": 357.1503, "ARG_OF_PERICENTER": 22.6226, "MEAN_ANOMALY": 337.5293, "EPHEMERIS_TYPE": 0, "CLASSIFICATION_TYPE": "U", "NORAD_CAT_ID": 36047, "ELEMENT_SET_NO": 999, "REV_AT_EPOCH": 65769, "BSTAR": 0.0028215631, "MEAN_MOTION_DOT": 0.00031167, "MEAN_MOTION_DDOT": 0}, "tle": {"line1": "1 36047U 93036AXJ 25335.34896127  .00031167  00000+0  28216-2 0  9997", "line2": "2 36047  74.0357 357.1503 0007608  22.6226 337.5293 14.95238744657695"}}, "geometry": {"type": "Point", "coordinates": [-12.550552437191307, -22.29660036623914]}}, {"type": "Feature", "properties": {"norad_id": 36048, "name": "COSMOS 2251 DEB", "group": "cosmos-2251-debris", "lat": 10.758304332465245, "lon": 134.42085759182532, "alt_km": 784.2399055591231, "timestamp": "2025-12-02T19:35:50.951683+00:00", "meta": {"OBJECT_NAME": "COSMOS 2251 DEB", "OBJECT_ID": "1993-036AXK", "EPOCH": "2025-12-02T05:33:28.179360", "MEAN_MOTION": 14.37820716, "ECCENTRICITY": 0.0026144, "INCLINATION": 74.0564, "RA_OF_ASC_NODE": 318.6098, "ARG_OF_PERICENTER": 10.9785, "MEAN_ANOMALY": 10.8514, "EPHEMERIS_TYPE": 0, "CLASSIFICATION_TYPE": "U", "NORAD_CAT_ID": 36048, "ELEMENT_SET_NO": 999, "REV_AT_EPOCH": 85351, "BSTAR": 0.00037177, "MEAN_MOTION_DOT": 1.099e-05, "MEAN_MOTION_DDOT": 0}, "tle": {"line1": "1 36048U 93036AXK 25336.23157615  .00001099  00000+0  37177-3 0  9997", "line2": "2 36048  74.0564 318.6098 0026144  10.9785  10.8514 14.37820716853511"}}, "geometry": {"type": "Point", "coordinates": [134.42085759182532, 10.758304332465245]}}, {"type": "Feature", "properties": {"norad_id": 36049, "name": "COSMOS 2251 DEB", "group": "cosmos-2251-debris", "lat": 46.510476992264635, "lon": -59.386752019669395, "alt_km": 682.8116500716624, "timestamp": "2025-12-02T19:35:50.951695+00:00", "meta": {"OBJECT_NAME": "COSMOS 2251 DEB", "OBJECT_ID": "1993-036AXL", "EPOCH": "2025-12-02T10:47:16.229760", "MEAN_MOTION": 14.61903141, "ECCENTRICITY": 0.0011373, "INCLINATION": 74.0292, "RA_OF_ASC_NODE": 138.8873, "ARG_OF_PERICENTER": 223.356, "MEAN_ANOMALY": 136.6713, "EPHEMERIS_TYPE": 0, "CLASSIFICATION_TYPE": "U", "NORAD_CAT_ID": 36049, "ELEMENT_SET_NO": 999, "REV_AT_EPOCH": 85214, "BSTAR": 0.0017573, "MEAN_MOTION_DOT": 8.782e-05, "MEAN_MOTION_DDOT": 0}, "tle": {"line1": "1 36049U 93036AXL 25336.44949340  .00008782  00000+0  17573-2 0  9998", "line2": "2 36049  74.0292 138.8873 0011373 223.3560 136.6713 14.61903141852149"}}, "geometry": {"type": "Point", "coordinates": [-59.386752019669395, 46.510476992264635]}}, {"type": "Feature", "properties": {"norad_id": 36050, "name": "COSMOS 2251 DEB", "group": "cosmos-2251-debris", "lat": -67.24529010898155, "lon": 77.28578569779894, "alt_km": 525.39573716614, "timestamp": "2025-12-02T19:35:50.951705+00:00", "meta": {"OBJECT_NAME": "COSMOS 2251 DEB", "OBJECT_ID": "1993-036AXM", "EPOCH": "2025-11-29T10:28:15.671136", "MEAN_MOTION": 15.00734928, "ECCENTRICITY": 0.00892831, "INCLINATION": 74.0316, "RA_OF_ASC_NODE": 221.1088, "ARG_OF_PERICENTER": 303.7997, "MEAN_ANOMALY": 55.471, "EPHEMERIS_TYPE": 0, "CLASSIFICATION_TYPE": "U", "NORAD_CAT_ID": 36050, "ELEMENT_SET_NO": 999, "REV_AT_EPOCH": 66835, "BSTAR": 0.00061877137, "MEAN_MOTION_DOT": 8.506e-05, "MEAN_MOTION_DDOT": 0}, "tle": {"line1": "1 36050U 93036AXM 25333.43629249  .00008506  00000+0  61877-3 0  9990", "line2": "2 36050  74.0316 221.1088 0089283 303.7997  55.4710 15.00734928668356"}}, "geometry": {"type": "Point", "coordinates": [77.28578569779894, -67.24529010898155]}}, {"type": "Feature", "properties": {"norad_id": 36053, "name": "COSMOS 2251 DEB", "group": "cosmos-2251-debris", "lat": -67.29971605620352, "lon": 127.95769822630676, "alt_km": 732.2375847962057, "timestamp": "2025-12-02T19:35:50.951716+00:00", "meta": {"OBJECT_NAME": "COSMOS 2251 DEB", "OBJECT_ID": "1993-036AXQ", "EPOCH": "2025-12-01T06:02:04.873920", "MEAN_MOTION": 14.56926822, "ECCENTRICITY": 0.0033176, "INCLINATION": 73.8721, "RA_OF_ASC_NODE": 174.7239, "ARG_OF_PERICENTER": 127.7081, "MEAN_ANOMALY": 232.7098, "EPHEMERIS_TYPE": 0, "CLASSIFICATION_TYPE": "U", "NORAD_CAT_ID": 36053, "ELEMENT_SET_NO": 999, "REV_AT_EPOCH": 87277, "BSTAR": 0.0017117, "MEAN_MOTION_DOT": 7.72e-05, "MEAN_MOTION_DDOT": 0}, "tle": {"line1": "1 36053U 93036AXQ 25335.25144530  .00007720  00000+0  17117-2 0  9994", "line2": "2 36053  73.8721 174.7239 0033176 127.7081 232.7098 14.56926822872773"}}, "geometry": {"type": "Point", "coordinates": [127.95769822630676, -67.29971605620352]}}]}